[{"OBJECT_NAME":"ICEYE-X39","OBJECT_ID":"2024-149CG","EPOCH":"2026-03-09T17:17:30.183072","MEAN_MOTION":14.99225125,"ECCENTRICITY":0.0005274,"INCLINATION":97.6853,"RA_OF_ASC_NODE":147.0953,"ARG_OF_PERICENTER":52.5538,"MEAN_ANOMALY":307.6164,"EPHEMERIS_TYPE":0,"CLASSIFICATION_TYPE":"U","NORAD_CAT_ID":60546,"ELEMENT_SET_NO":999,"REV_AT_EPOCH":8521,"BSTAR":0.00029320082,"MEAN_MOTION_DOT":3.515e-5,"MEAN_MOTION_DDOT":0},{"OBJECT_NAME":"STARLINK-35958","OBJECT_ID":"2025-280B","EPOCH":"2026-03-09T22:33:13.781376","MEAN_MOTION":14.98325387,"ECCENTRICITY":0.00026185,"INCLINATION":70.0023,"RA_OF_ASC_NODE":333.813,"ARG_OF_PERICENTER":271.2816,"MEAN_ANOMALY":88.8043,"EPHEMERIS_TYPE":0,"CLASSIFICATION_TYPE":"U","NORAD_CAT_ID":66822,"ELEMENT_SET_NO":999,"REV_AT_EPOCH":1611,"BSTAR":0.00027043095,"MEAN_MOTION_DOT":3.135e-5,"MEAN_MOTION_DDOT":0}]
